{
  "norad_id": 57123,
  "name": "STARLINK-6154",
  "history": [
    {
      "epoch": "2026-03-28T13:05:02.441760",
      "apogee_km": 560.1896498817614,
      "perigee_km": 557.9815319310756,
      "latitude_deg": -9.820832260281835,
      "longitude_deg": -55.36395359993912,
      "semi_major_axis_km": 6937.222590906418,
      "eccentricity": 0.00015915,
      "inclination_deg": 43.0038,
      "raan_deg": 171.8558,
      "arg_perigee_deg": 276.7182,
      "mean_anomaly_deg": 83.3479,
      "mean_motion_rev_day": 15.02534032
    }
  ]
}