{"fetched_at":"2026-03-29T02:12:04Z","count":15717,"tles":[{"name":"STARLINK-6154","line1":"1 57123U 23090Y   26087.54516715  .00000575  00000+0  57650-4 0  9992","line2":"2 57123  43.0038 171.8558 0001591 276.7182  83.3479 15.02534032153066","category":"Starlink"}]}